OBJECT_NAME,OBJECT_ID,EPOCH,MEAN_MOTION,ECCENTRICITY,INCLINATION,RA_OF_ASC_NODE,ARG_OF_PERICENTER,MEAN_ANOMALY,EPHEMERIS_TYPE,CLASSIFICATION_TYPE,NORAD_CAT_ID,ELEMENT_SET_NO,REV_AT_EPOCH,BSTAR,MEAN_MOTION_DOT,MEAN_MOTION_DDOT
STARLINK-35345,2025-221L,2026-07-13T11:23:52.437408,15.34406676,.00012397,53.1574,222.5317,71.7345,288.3793,0,U,65833,999,4536,.37078014E-3,.12174E-3,0
STARLINK-35320,2025-221M,2026-07-13T13:55:34.445856,15.30188798,.00016395,53.1578,223.8929,68.4818,291.6358,0,U,65834,999,4400,-.35339459E-4,-.1406E-4,0
STARLINK-35349,2025-221N,2026-07-13T13:28:38.836704,15.34423959,.00008309,53.1578,223.7792,60.1233,299.9852,0,U,65835,999,4400,.62385854E-3,.20776E-3,0
STARLINK-35356,2025-221P,2026-07-13T11:19:13.621152,15.30202921,.00013637,53.1577,223.9248,54.2130,305.8998,0,U,65836,999,4399,.31732666E-3,.9051E-4,0
STARLINK-35314,2025-221Q,2026-07-13T11:02:40.058304,15.34398920,.00011854,53.1583,222.4394,74.7306,285.3827,0,U,65837,999,4401,.29689432E-3,.9667E-4,0
STARLINK-35324,2025-221R,2026-07-13T11:36:40.515264,15.34404954,.00015103,53.1580,224.0052,52.9894,307.1246,0,U,65838,999,4399,.34236063E-3,.1121E-3,0
STARLINK-35102,2025-221S,2026-07-13T08:13:15.103488,15.34410569,.00010592,53.1570,223.1216,101.8653,258.2468,0,U,65839,999,4399,.39525658E-3,.13006E-3,0
STARLINK-35364,2025-221T,2026-07-13T08:46:26.741856,15.34413654,.00012782,53.1552,222.5558,144.2694,215.8395,0,U,65840,999,4400,.432314E-3,.14264E-3,0
STARLINK-35298,2025-221V,2026-07-13T09:16:44.766336,15.34395126,.00026637,53.1574,222.6891,350.8571,9.2382,0,U,65842,999,4400,.11874381E-3,.3636E-4,0
STARLINK-35301,2025-221W,2026-07-13T12:09:11.406528,15.34413170,.00013408,53.1569,222.0164,56.3202,303.7928,0,U,65843,999,4402,.30073171E-3,.9802E-4,0
STARLINK-35148,2025-221X,2026-07-13T07:24:46.804320,15.34398292,.0001128,53.1561,222.9155,89.5217,270.5914,0,U,65844,999,4399,.52218E-3,.17306E-3,0
STARLINK-35302,2025-221Y,2026-07-13T12:00:06.487776,15.34402551,.00019818,53.1559,221.9771,38.9699,321.1446,0,U,65845,999,4402,.38285442E-3,.12582E-3,0
STARLINK-35290,2025-221Z,2026-07-13T14:22:22.758528,15.34412066,.00009794,53.1578,221.8798,59.7171,300.3928,0,U,65846,999,4403,.46534464E-3,.15385E-3,0
STARLINK-35262,2025-221AA,2026-07-13T09:08:28.079520,15.34400265,.00008867,53.1583,224.7786,73.3917,286.7183,0,U,65847,999,4532,.25530058E-3,.8259E-4,0
STARLINK-35308,2025-221AB,2026-07-13T12:21:20.521440,15.34405091,.00009723,53.1565,222.0667,90.8449,269.2665,0,U,65848,999,4537,.39161238E-3,.1288E-3,0
STARLINK-35231,2025-221AC,2026-07-13T13:22:35.220576,15.34403178,.00012983,53.1578,223.7475,87.0653,273.0498,0,U,65849,999,4535,.53654599E-3,.17797E-3,0
STARLINK-35252,2025-221AD,2026-07-12T09:59:20.099904,15.30213965,.00015738,53.1585,229.4226,111.2430,248.8739,0,U,65850,999,4517,.35494684E-3,.10172E-3,0
SHIYAN-30 01,2025-222A,2026-07-13T15:53:08.202336,14.91837712,.0002173,34.9884,103.3381,313.0089,47.0433,0,U,65851,999,4299,.9805E-4,.982E-5,0
SHIYAN-30 02,2025-222B,2026-07-13T15:52:03.729792,14.91846475,.0002593,34.9969,103.5068,331.1835,28.8727,0,U,65852,999,4297,.97595E-4,.977E-5,0
STARLINK-35208,2025-223A,2026-07-13T01:06:25.821216,15.34408975,.0001341,53.1593,70.1166,88.9709,271.1447,0,U,65854,999,4342,.67206748E-3,.22405E-3,0
STARLINK-35200,2025-223B,2026-07-12T21:19:45.788160,15.30204302,.00013235,53.1588,72.6779,93.5550,266.5602,0,U,65855,999,4337,.377111E-3,.10828E-3,0
STARLINK-35459,2025-223C,2026-07-12T21:52:46.786368,15.34412909,.0001226,53.1597,70.6954,96.7796,263.3346,0,U,65856,999,4340,.49611238E-3,.16429E-3,0
STARLINK-35489,2025-223D,2026-07-12T22:29:08.251584,15.34407535,.00012048,53.1587,70.8537,76.4726,283.6411,0,U,65857,999,4340,.45200059E-3,.14929E-3,0
STARLINK-35199,2025-223E,2026-07-12T22:32:32.225568,15.30222733,.00012106,53.1598,72.2846,79.9541,280.1596,0,U,65858,999,4338,.76440642E-3,.22364E-3,0
STARLINK-35408,2025-223F,2026-07-12T22:38:13.680096,15.34413421,.00010537,53.1584,70.8947,86.5771,273.5352,0,U,65859,999,4340,.53282219E-3,.17676E-3,0
STARLINK-35303,2025-223G,2026-07-13T00:05:57.892992,15.34404280,.00013643,53.1591,70.5599,92.3377,267.7782,0,U,65860,999,4341,.48868386E-3,.16173E-3,0
STARLINK-35258,2025-223H,2026-07-13T01:09:27.479808,15.34415685,.00010933,53.1603,70.1246,99.2881,260.8246,0,U,65861,999,4342,.47286031E-3,.15641E-3,0
STARLINK-35386,2025-223J,2026-07-13T00:48:22.831776,15.34413333,.00015667,53.1600,70.7413,84.1557,275.9624,0,U,65862,999,4341,.42945155E-3,.14167E-3,0
STARLINK-35469,2025-223K,2026-07-12T22:13:59.258784,15.34414678,.00012821,53.1590,70.7875,89.7524,270.3625,0,U,65863,999,4340,.47632916E-3,.15759E-3,0
STARLINK-35471,2025-223L,2026-07-13T03:04:03.686016,15.30216442,.00015626,53.1603,71.3237,102.5022,257.6154,0,U,65864,999,4341,.55393041E-3,.1609E-3,0
