STARLINK-35345          
1 65833U 25221L   26194.47491247  .00012174  00000+0  37078-3 0  9999
2 65833  53.1574 222.5317 0001239  71.7345 288.3793 15.34406676 45366
STARLINK-35320          
1 65834U 25221M   26194.58025979 -.00001406  00000+0 -35339-4 0  9994
2 65834  53.1578 223.8929 0001639  68.4818 291.6358 15.30188798 44008
STARLINK-35349          
1 65835U 25221N   26194.56156061  .00020776  00000+0  62386-3 0  9990
2 65835  53.1578 223.7792 0000830  60.1233 299.9852 15.34423959 44003
STARLINK-35356          
1 65836U 25221P   26194.47168543  .00009051  00000+0  31733-3 0  9994
2 65836  53.1577 223.9248 0001363  54.2130 305.8998 15.30202921 43998
STARLINK-35314          
1 65837U 25221Q   26194.46018586  .00009667  00000+0  29689-3 0  9995
2 65837  53.1583 222.4394 0001185  74.7306 285.3827 15.34398920 44012
STARLINK-35324          
1 65838U 25221R   26194.48380226  .00011210  00000+0  34236-3 0  9992
2 65838  53.1580 224.0052 0001510  52.9894 307.1246 15.34404954 43990
STARLINK-35102          
1 65839U 25221S   26194.34253592  .00013006  00000+0  39526-3 0  9995
2 65839  53.1570 223.1216 0001059 101.8653 258.2468 15.34410569 43998
STARLINK-35364          
1 65840U 25221T   26194.36558729  .00014264  00000+0  43231-3 0  9994
2 65840  53.1552 222.5558 0001278 144.2694 215.8395 15.34413654 44000
STARLINK-35298          
1 65842U 25221V   26194.38662924  .00003636  00000+0  11874-3 0  9990
2 65842  53.1574 222.6891 0002663 350.8571   9.2382 15.34395126 44009
STARLINK-35301          
1 65843U 25221W   26194.50638202  .00009802  00000+0  30073-3 0  9990
2 65843  53.1569 222.0164 0001340  56.3202 303.7928 15.34413170 44021
STARLINK-35148          
1 65844U 25221X   26194.30887505  .00017306  00000+0  52218-3 0  9994
2 65844  53.1561 222.9155 0001128  89.5217 270.5914 15.34398292 43999
STARLINK-35302          
1 65845U 25221Y   26194.50007509  .00012582  00000+0  38285-3 0  9994
2 65845  53.1559 221.9771 0001981  38.9699 321.1446 15.34402551 44021
STARLINK-35290          
1 65846U 25221Z   26194.59887452  .00015385  00000+0  46534-3 0  9997
2 65846  53.1578 221.8798 0000979  59.7171 300.3928 15.34412066 44030
STARLINK-35262          
1 65847U 25221AA  26194.38088055  .00008259  00000+0  25530-3 0  9992
2 65847  53.1583 224.7786 0000886  73.3917 286.7183 15.34400265 45324
STARLINK-35308          
1 65848U 25221AB  26194.51482085  .00012880  00000+0  39161-3 0  9999
2 65848  53.1565 222.0667 0000972  90.8449 269.2665 15.34405091 45372
STARLINK-35231          
1 65849U 25221AC  26194.55735209  .00017797  00000+0  53655-3 0  9999
2 65849  53.1578 223.7475 0001298  87.0653 273.0498 15.34403178 45358
STARLINK-35252          
1 65850U 25221AD  26193.41620486  .00010172  00000+0  35495-3 0  9997
2 65850  53.1585 229.4226 0001573 111.2430 248.8739 15.30213965 45171
SHIYAN-30 01            
1 65851U 25222A   26194.66190049  .00000982  00000+0  98050-4 0  9999
2 65851  34.9884 103.3381 0002173 313.0089  47.0433 14.91837712 42997
SHIYAN-30 02            
1 65852U 25222B   26194.66115428  .00000977  00000+0  97595-4 0  9995
2 65852  34.9969 103.5068 0002593 331.1835  28.8727 14.91846475 42979
STARLINK-35208          
1 65854U 25223A   26194.04613219  .00022405  00000+0  67207-3 0  9997
2 65854  53.1593  70.1166 0001341  88.9709 271.1447 15.34408975 43422
STARLINK-35200          
1 65855U 25223B   26193.88872440  .00010828  00000+0  37711-3 0  9995
2 65855  53.1588  72.6779 0001323  93.5550 266.5602 15.30204302 43379
STARLINK-35459          
1 65856U 25223C   26193.91165262  .00016429  00000+0  49611-3 0  9992
2 65856  53.1597  70.6954 0001226  96.7796 263.3346 15.34412909 43404
STARLINK-35489          
1 65857U 25223D   26193.93690106  .00014929  00000+0  45200-3 0  9998
2 65857  53.1587  70.8537 0001204  76.4726 283.6411 15.34407535 43404
STARLINK-35199          
1 65858U 25223E   26193.93926187  .00022364  00000+0  76441-3 0  9993
2 65858  53.1598  72.2846 0001210  79.9541 280.1596 15.30222733 43380
STARLINK-35408          
1 65859U 25223F   26193.94321389  .00017676  00000+0  53282-3 0  9996
2 65859  53.1584  70.8947 0001053  86.5771 273.5352 15.34413421 43405
STARLINK-35303          
1 65860U 25223G   26194.00414228  .00016173  00000+0  48868-3 0  9996
2 65860  53.1591  70.5599 0001364  92.3377 267.7782 15.34404280 43413
STARLINK-35258          
1 65861U 25223H   26194.04823472  .00015641  00000+0  47286-3 0  9998
2 65861  53.1603  70.1246 0001093  99.2881 260.8246 15.34415685 43429
STARLINK-35386          
1 65862U 25223J   26194.03359759  .00014167  00000+0  42945-3 0  9999
2 65862  53.1600  70.7413 0001566  84.1557 275.9624 15.34413333 43411
STARLINK-35469          
1 65863U 25223K   26193.92638031  .00015759  00000+0  47633-3 0  9997
2 65863  53.1590  70.7875 0001282  89.7524 270.3625 15.34414678 43404
STARLINK-35471          
1 65864U 25223L   26194.12782044  .00016090  00000+0  55393-3 0  9996
2 65864  53.1603  71.3237 0001562 102.5022 257.6154 15.30216442 43418
